ONEWEB-0290             
1 49080U 21075F   25321.24061296  .00000108  00000+0  24462-3 0  9998
2 49080  87.9143  47.9884 0002179  90.8156 269.3225 13.17648510205702
ONEWEB-0291             
1 49081U 21075G   25321.30135232  .00000065  00000+0  13472-3 0  9999
2 49081  87.9140  47.9824 0001511  92.0353 268.0952 13.17652149205702
ONEWEB-0293             
1 49082U 21075H   25321.47853253 -.00000422  00000+0 -11189-2 0  9999
2 49082  87.9134  47.9706 0001780  97.4505 262.6829 13.17649386205758
ONEWEB-0294             
1 49083U 21075J   25321.23763412 -.00000364  00000+0 -10465-2 0  9992
2 49083  87.8970  32.7603 0001982  87.2169 272.9187 13.12442717206779
ONEWEB-0295             
1 49084U 21075K   25321.47770331  .00000127  00000+0  29310-3 0  9992
2 49084  87.9132  47.9751 0001418  93.9080 266.2213 13.17651277205710
ONEWEB-0296             
1 49085U 21075L   25321.21817647 -.00000106  00000+0 -33099-3 0  9995
2 49085  87.8970  32.7698 0001547  87.0852 273.0454 13.12441515206773
ONEWEB-0297             
1 49086U 21075M   25321.47770172 -.00001547  00000+0 -43361-2 0  9997
2 49086  87.8963  32.7518 0001885  97.3338 262.8005 13.12449643207415
ONEWEB-0298             
1 49087U 21075N   25321.48204447 -.00000313  00000+0 -83949-3 0  9993
2 49087  87.9134  47.9710 0001765 103.6800 256.4529 13.17649804205741
ONEWEB-0299             
1 49088U 21075P   25321.48359978 -.00000156  00000+0 -43586-3 0  9992
2 49088  87.9140  47.9299 0001534 101.8449 258.2855 13.17651177205720
ONEWEB-0300             
1 49089U 21075Q   25321.24088127 -.00000324  00000+0 -93683-3 0  9992
2 49089  87.8970  32.7561 0001890 111.2341 248.8990 13.12442429207401
ONEWEB-0301             
1 49090U 21075R   25321.22465015 -.00000364  00000+0 -10460-2 0  9992
2 49090  87.8968  32.7619 0001903 114.0824 246.0504 13.12441148206762
ONEWEB-0302             
1 49091U 21075S   25321.21168430  .00000096  00000+0  23274-3 0  9991
2 49091  87.8972  32.7726 0001780  90.1276 270.0057 13.12441316206740
ONEWEB-0304             
1 49092U 21075T   25321.30641271 -.00000041  00000+0 -13990-3 0  9997
2 49092  87.9142  47.9961 0001576 100.0192 260.1118 13.17651977205671
ONEWEB-0305             
1 49093U 21075U   25321.29967119  .00000014  00000+0  40800-5 0  9998
2 49093  87.9144  47.9743 0001287  97.8535 262.2743 13.17647610205705
ONEWEB-0308             
1 49094U 21075V   25321.28142878  .00001210  00000+0  33263-2 0  9996
2 49094  87.8971  32.7517 0001833 101.4093 258.7241 13.12450344206763
ONEWEB-0309             
1 49095U 21075W   25321.30304691 -.00000031  00000+0 -11370-3 0  9991
2 49095  87.9145  47.9905 0001791  84.8226 275.3110 13.17650908205674
ONEWEB-0310             
1 49096U 21075X   25321.21978925 -.00000670  00000+0 -18985-2 0  9996
2 49096  87.8963  32.8024 0001906  96.2673 263.8673 13.12444162207382
