[{"OBJECT_NAME":"ONEWEB-0290","OBJECT_ID":"2021-075F","EPOCH":"2025-11-17T05:46:28.959744","MEAN_MOTION":13.1764851,"ECCENTRICITY":0.00021792,"INCLINATION":87.9143,"RA_OF_ASC_NODE":47.9884,"ARG_OF_PERICENTER":90.8156,"MEAN_ANOMALY":269.3225,"EPHEMERIS_TYPE":0,"CLASSIFICATION_TYPE":"U","NORAD_CAT_ID":49080,"ELEMENT_SET_NO":999,"REV_AT_EPOCH":20570,"BSTAR":0.00024461843,"MEAN_MOTION_DOT":1.08e-6,"MEAN_MOTION_DDOT":0},{"OBJECT_NAME":"ONEWEB-0291","OBJECT_ID":"2021-075G","EPOCH":"2025-11-17T07:13:56.840448","MEAN_MOTION":13.17652149,"ECCENTRICITY":0.00015118,"INCLINATION":87.914,"RA_OF_ASC_NODE":47.9824,"ARG_OF_PERICENTER":92.0353,"MEAN_ANOMALY":268.0952,"EPHEMERIS_TYPE":0,"CLASSIFICATION_TYPE":"U","NORAD_CAT_ID":49081,"ELEMENT_SET_NO":999,"REV_AT_EPOCH":20570,"BSTAR":0.0001347158,"MEAN_MOTION_DOT":6.5e-7,"MEAN_MOTION_DDOT":0},{"OBJECT_NAME":"ONEWEB-0293","OBJECT_ID":"2021-075H","EPOCH":"2025-11-17T11:29:05.210592","MEAN_MOTION":13.17649386,"ECCENTRICITY":0.000178,"INCLINATION":87.9134,"RA_OF_ASC_NODE":47.9706,"ARG_OF_PERICENTER":97.4505,"MEAN_ANOMALY":262.6829,"EPHEMERIS_TYPE":0,"CLASSIFICATION_TYPE":"U","NORAD_CAT_ID":49082,"ELEMENT_SET_NO":999,"REV_AT_EPOCH":20575,"BSTAR":-0.0011189,"MEAN_MOTION_DOT":-4.22e-6,"MEAN_MOTION_DDOT":0},{"OBJECT_NAME":"ONEWEB-0294","OBJECT_ID":"2021-075J","EPOCH":"2025-11-17T05:42:11.587968","MEAN_MOTION":13.12442717,"ECCENTRICITY":0.00019824,"INCLINATION":87.897,"RA_OF_ASC_NODE":32.7603,"ARG_OF_PERICENTER":87.2169,"MEAN_ANOMALY":272.9187,"EPHEMERIS_TYPE":0,"CLASSIFICATION_TYPE":"U","NORAD_CAT_ID":49083,"ELEMENT_SET_NO":999,"REV_AT_EPOCH":20677,"BSTAR":-0.0010464562,"MEAN_MOTION_DOT":-3.64e-6,"MEAN_MOTION_DDOT":0},{"OBJECT_NAME":"ONEWEB-0295","OBJECT_ID":"2021-075K","EPOCH":"2025-11-17T11:27:53.565984","MEAN_MOTION":13.17651277,"ECCENTRICITY":0.0001418,"INCLINATION":87.9132,"RA_OF_ASC_NODE":47.9751,"ARG_OF_PERICENTER":93.908,"MEAN_ANOMALY":266.2213,"EPHEMERIS_TYPE":0,"CLASSIFICATION_TYPE":"U","NORAD_CAT_ID":49084,"ELEMENT_SET_NO":999,"REV_AT_EPOCH":20571,"BSTAR":0.0002931,"MEAN_MOTION_DOT":1.27e-6,"MEAN_MOTION_DDOT":0},{"OBJECT_NAME":"ONEWEB-0296","OBJECT_ID":"2021-075L","EPOCH":"2025-11-17T05:14:10.447008","MEAN_MOTION":13.12441515,"ECCENTRICITY":0.00015479,"INCLINATION":87.897,"RA_OF_ASC_NODE":32.7698,"ARG_OF_PERICENTER":87.0852,"MEAN_ANOMALY":273.0454,"EPHEMERIS_TYPE":0,"CLASSIFICATION_TYPE":"U","NORAD_CAT_ID":49085,"ELEMENT_SET_NO":999,"REV_AT_EPOCH":20677,"BSTAR":-0.00033098979,"MEAN_MOTION_DOT":-1.06e-6,"MEAN_MOTION_DDOT":0},{"OBJECT_NAME":"ONEWEB-0297","OBJECT_ID":"2021-075M","EPOCH":"2025-11-17T11:27:53.428608","MEAN_MOTION":13.12449643,"ECCENTRICITY":0.0001885,"INCLINATION":87.8963,"RA_OF_ASC_NODE":32.7518,"ARG_OF_PERICENTER":97.3338,"MEAN_ANOMALY":262.8005,"EPHEMERIS_TYPE":0,"CLASSIFICATION_TYPE":"U","NORAD_CAT_ID":49086,"ELEMENT_SET_NO":999,"REV_AT_EPOCH":20741,"BSTAR":-0.0043361,"MEAN_MOTION_DOT":-1.547e-5,"MEAN_MOTION_DDOT":0},{"OBJECT_NAME":"ONEWEB-0298","OBJECT_ID":"2021-075N","EPOCH":"2025-11-17T11:34:08.642208","MEAN_MOTION":13.17649804,"ECCENTRICITY":0.0001765,"INCLINATION":87.9134,"RA_OF_ASC_NODE":47.971,"ARG_OF_PERICENTER":103.68,"MEAN_ANOMALY":256.4529,"EPHEMERIS_TYPE":0,"CLASSIFICATION_TYPE":"U","NORAD_CAT_ID":49087,"ELEMENT_SET_NO":999,"REV_AT_EPOCH":20574,"BSTAR":-0.00083949,"MEAN_MOTION_DOT":-3.13e-6,"MEAN_MOTION_DDOT":0},{"OBJECT_NAME":"ONEWEB-0299","OBJECT_ID":"2021-075P","EPOCH":"2025-11-17T11:36:23.020992","MEAN_MOTION":13.17651177,"ECCENTRICITY":0.0001534,"INCLINATION":87.914,"RA_OF_ASC_NODE":47.9299,"ARG_OF_PERICENTER":101.8449,"MEAN_ANOMALY":258.2855,"EPHEMERIS_TYPE":0,"CLASSIFICATION_TYPE":"U","NORAD_CAT_ID":49088,"ELEMENT_SET_NO":999,"REV_AT_EPOCH":20572,"BSTAR":-0.00043586,"MEAN_MOTION_DOT":-1.56e-6,"MEAN_MOTION_DDOT":0},{"OBJECT_NAME":"ONEWEB-0300","OBJECT_ID":"2021-075Q","EPOCH":"2025-11-17T05:46:52.141728","MEAN_MOTION":13.12442429,"ECCENTRICITY":0.00018903,"INCLINATION":87.897,"RA_OF_ASC_NODE":32.7561,"ARG_OF_PERICENTER":111.2341,"MEAN_ANOMALY":248.899,"EPHEMERIS_TYPE":0,"CLASSIFICATION_TYPE":"U","NORAD_CAT_ID":49089,"ELEMENT_SET_NO":999,"REV_AT_EPOCH":20740,"BSTAR":-0.00093683025,"MEAN_MOTION_DOT":-3.24e-6,"MEAN_MOTION_DDOT":0},{"OBJECT_NAME":"ONEWEB-0301","OBJECT_ID":"2021-075R","EPOCH":"2025-11-17T05:23:29.772960","MEAN_MOTION":13.12441148,"ECCENTRICITY":0.00019033,"INCLINATION":87.8968,"RA_OF_ASC_NODE":32.7619,"ARG_OF_PERICENTER":114.0824,"MEAN_ANOMALY":246.0504,"EPHEMERIS_TYPE":0,"CLASSIFICATION_TYPE":"U","NORAD_CAT_ID":49090,"ELEMENT_SET_NO":999,"REV_AT_EPOCH":20676,"BSTAR":-0.0010460054,"MEAN_MOTION_DOT":-3.64e-6,"MEAN_MOTION_DDOT":0},{"OBJECT_NAME":"ONEWEB-0302","OBJECT_ID":"2021-075S","EPOCH":"2025-11-17T05:04:49.523520","MEAN_MOTION":13.12441316,"ECCENTRICITY":0.00017808,"INCLINATION":87.8972,"RA_OF_ASC_NODE":32.7726,"ARG_OF_PERICENTER":90.1276,"MEAN_ANOMALY":270.0057,"EPHEMERIS_TYPE":0,"CLASSIFICATION_TYPE":"U","NORAD_CAT_ID":49091,"ELEMENT_SET_NO":999,"REV_AT_EPOCH":20674,"BSTAR":0.00023274311,"MEAN_MOTION_DOT":9.6e-7,"MEAN_MOTION_DDOT":0},{"OBJECT_NAME":"ONEWEB-0304","OBJECT_ID":"2021-075T","EPOCH":"2025-11-17T07:21:14.058144","MEAN_MOTION":13.17651977,"ECCENTRICITY":0.0001576,"INCLINATION":87.9142,"RA_OF_ASC_NODE":47.9961,"ARG_OF_PERICENTER":100.0192,"MEAN_ANOMALY":260.1118,"EPHEMERIS_TYPE":0,"CLASSIFICATION_TYPE":"U","NORAD_CAT_ID":49092,"ELEMENT_SET_NO":999,"REV_AT_EPOCH":20567,"BSTAR":-0.0001399,"MEAN_MOTION_DOT":-4.1e-7,"MEAN_MOTION_DDOT":0},{"OBJECT_NAME":"ONEWEB-0305","OBJECT_ID":"2021-075U","EPOCH":"2025-11-17T07:11:31.590816","MEAN_MOTION":13.1764761,"ECCENTRICITY":0.00012878,"INCLINATION":87.9144,"RA_OF_ASC_NODE":47.9743,"ARG_OF_PERICENTER":97.8535,"MEAN_ANOMALY":262.2743,"EPHEMERIS_TYPE":0,"CLASSIFICATION_TYPE":"U","NORAD_CAT_ID":49093,"ELEMENT_SET_NO":999,"REV_AT_EPOCH":20570,"BSTAR":4.079992e-6,"MEAN_MOTION_DOT":1.4e-7,"MEAN_MOTION_DDOT":0},{"OBJECT_NAME":"ONEWEB-0308","OBJECT_ID":"2021-075V","EPOCH":"2025-11-17T06:45:15.446592","MEAN_MOTION":13.12450344,"ECCENTRICITY":0.00018332,"INCLINATION":87.8971,"RA_OF_ASC_NODE":32.7517,"ARG_OF_PERICENTER":101.4093,"MEAN_ANOMALY":258.7241,"EPHEMERIS_TYPE":0,"CLASSIFICATION_TYPE":"U","NORAD_CAT_ID":49094,"ELEMENT_SET_NO":999,"REV_AT_EPOCH":20676,"BSTAR":0.0033262745,"MEAN_MOTION_DOT":1.21e-5,"MEAN_MOTION_DDOT":0},{"OBJECT_NAME":"ONEWEB-0309","OBJECT_ID":"2021-075W","EPOCH":"2025-11-17T07:16:23.253024","MEAN_MOTION":13.17650908,"ECCENTRICITY":0.00017914,"INCLINATION":87.9145,"RA_OF_ASC_NODE":47.9905,"ARG_OF_PERICENTER":84.8226,"MEAN_ANOMALY":275.311,"EPHEMERIS_TYPE":0,"CLASSIFICATION_TYPE":"U","NORAD_CAT_ID":49095,"ELEMENT_SET_NO":999,"REV_AT_EPOCH":20567,"BSTAR":-0.00011370401,"MEAN_MOTION_DOT":-3.1e-7,"MEAN_MOTION_DDOT":0},{"OBJECT_NAME":"ONEWEB-0310","OBJECT_ID":"2021-075X","EPOCH":"2025-11-17T05:16:29.791200","MEAN_MOTION":13.12444162,"ECCENTRICITY":0.0001906,"INCLINATION":87.8963,"RA_OF_ASC_NODE":32.8024,"ARG_OF_PERICENTER":96.2673,"MEAN_ANOMALY":263.8673,"EPHEMERIS_TYPE":0,"CLASSIFICATION_TYPE":"U","NORAD_CAT_ID":49096,"ELEMENT_SET_NO":999,"REV_AT_EPOCH":20738,"BSTAR":-0.0018984673,"MEAN_MOTION_DOT":-6.7e-6,"MEAN_MOTION_DDOT":0}]
